{
  "type": "FeatureCollection",
  "features": [
    {
      "type": "Feature",
      "properties": {
        "norad_id": 39773,
        "name": "EUTELSAT 3B",
        "group": "eutelsat",
        "lat": 0.06085407868332651,
        "lon": 47.415213735683494,
        "alt_km": 35804.269081621496,
        "timestamp": "2025-12-27T20:30:58.958708+00:00",
        "meta_object_name": "EUTELSAT 3B",
        "meta_object_id": "2014-030A",
        "meta_epoch": "2025-12-27T06:13:38.544096",
        "meta_mean_motion": 1.00270423,
        "meta_eccentricity": 0.0004288,
        "meta_inclination": 0.06,
        "meta_ra_of_asc_node": 354.4554,
        "meta_arg_of_pericenter": 242.3493,
        "meta_mean_anomaly": 315.6906,
        "meta_ephemeris_type": 0,
        "meta_classification_type": "U",
        "meta_norad_cat_id": 39773,
        "meta_element_set_no": 999,
        "meta_rev_at_epoch": 4234,
        "meta_bstar": 0,
        "meta_mean_motion_dot": 4.2e-07,
        "meta_mean_motion_ddot": 0,
        "tle_line1": "1 39773U 14030A   25361.25947389  .00000042  00000+0  00000+0 0  9995",
        "tle_line2": "2 39773   0.0600 354.4554 0004288 242.3493 315.6906  1.00270423 42348"
      },
      "geometry": {
        "type": "Point",
        "coordinates": [
          47.415213735683494,
          0.06085407868332651
        ]
      }
    },
    {
      "type": "Feature",
      "properties": {
        "norad_id": 40425,
        "name": "EUTELSAT 115 WEST B",
        "group": "eutelsat",
        "lat": 0.0049012143769577195,
        "lon": -70.57878763808324,
        "alt_km": 35785.667780227624,
        "timestamp": "2025-12-27T20:30:58.958720+00:00",
        "meta_object_name": "EUTELSAT 115 WEST B",
        "meta_object_id": "2015-010B",
        "meta_epoch": "2025-12-26T05:44:38.581152",
        "meta_mean_motion": 1.00273604,
        "meta_eccentricity": 7.8e-06,
        "meta_inclination": 0.0077,
        "meta_ra_of_asc_node": 147.8651,
        "meta_arg_of_pericenter": 258.8043,
        "meta_mean_anomaly": 19.571,
        "meta_ephemeris_type": 0,
        "meta_classification_type": "U",
        "meta_norad_cat_id": 40425,
        "meta_element_set_no": 999,
        "meta_rev_at_epoch": 3965,
        "meta_bstar": 0,
        "meta_mean_motion_dot": -3e-08,
        "meta_mean_motion_ddot": 0,
        "tle_line1": "1 40425U 15010B   25360.23933543 -.00000003  00000+0  00000+0 0  9992",
        "tle_line2": "2 40425   0.0077 147.8651 0000078 258.8043  19.5710  1.00273604 39657"
      },
      "geometry": {
        "type": "Point",
        "coordinates": [
          -70.57878763808324,
          0.0049012143769577195
        ]
      }
    },
    {
      "type": "Feature",
      "properties": {
        "norad_id": 40875,
        "name": "EUTELSAT 8 WEST B",
        "group": "eutelsat",
        "lat": 0.034851574668462434,
        "lon": 36.355794266671886,
        "alt_km": 35795.02039165157,
        "timestamp": "2025-12-27T20:30:58.958732+00:00",
        "meta_object_name": "EUTELSAT 8 WEST B",
        "meta_object_id": "2015-039B",
        "meta_epoch": "2025-12-27T06:06:52.392384",
        "meta_mean_motion": 1.00271434,
        "meta_eccentricity": 0.0004196,
        "meta_inclination": 0.0657,
        "meta_ra_of_asc_node": 13.5765,
        "meta_arg_of_pericenter": 262.8857,
        "meta_mean_anomaly": 263.2409,
        "meta_ephemeris_type": 0,
        "meta_classification_type": "U",
        "meta_norad_cat_id": 40875,
        "meta_element_set_no": 999,
        "meta_rev_at_epoch": 3793,
        "meta_bstar": 0,
        "meta_mean_motion_dot": -4.3e-07,
        "meta_mean_motion_ddot": 0,
        "tle_line1": "1 40875U 15039B   25361.25477306 -.00000043  00000+0  00000+0 0  9999",
        "tle_line2": "2 40875   0.0657  13.5765 0004196 262.8857 263.2409  1.00271434 37939"
      },
      "geometry": {
        "type": "Point",
        "coordinates": [
          36.355794266671886,
          0.034851574668462434
        ]
      }
    },
    {
      "type": "Feature",
      "properties": {
        "norad_id": 41310,
        "name": "EUTELSAT 9B",
        "group": "eutelsat",
        "lat": 0.011812332613963073,
        "lon": 53.340768551482775,
        "alt_km": 35801.344168407806,
        "timestamp": "2025-12-27T20:30:58.958744+00:00",
        "meta_object_name": "EUTELSAT 9B",
        "meta_object_id": "2016-005A",
        "meta_epoch": "2025-12-27T06:13:38.544096",
        "meta_mean_motion": 1.00270106,
        "meta_eccentricity": 0.0004769,
        "meta_inclination": 0.0298,
        "meta_ra_of_asc_node": 51.1118,
        "meta_arg_of_pericenter": 224.9005,
        "meta_mean_anomaly": 282.38,
        "meta_ephemeris_type": 0,
        "meta_classification_type": "U",
        "meta_norad_cat_id": 41310,
        "meta_element_set_no": 999,
        "meta_rev_at_epoch": 3639,
        "meta_bstar": 0,
        "meta_mean_motion_dot": 8.4e-07,
        "meta_mean_motion_ddot": 0,
        "tle_line1": "1 41310U 16005A   25361.25947389  .00000084  00000+0  00000+0 0  9995",
        "tle_line2": "2 41310   0.0298  51.1118 0004769 224.9005 282.3800  1.00270106 36396"
      },
      "geometry": {
        "type": "Point",
        "coordinates": [
          53.340768551482775,
          0.011812332613963073
        ]
      }
    },
    {
      "type": "Feature",
      "properties": {
        "norad_id": 41382,
        "name": "EUTELSAT 65 WEST A",
        "group": "eutelsat",
        "lat": -0.016716393277162137,
        "lon": -20.84248236263136,
        "alt_km": 35781.16254648021,
        "timestamp": "2025-12-27T20:30:58.958756+00:00",
        "meta_object_name": "EUTELSAT 65 WEST A",
        "meta_object_id": "2016-014A",
        "meta_epoch": "2025-12-27T10:58:46.937280",
        "meta_mean_motion": 1.00270645,
        "meta_eccentricity": 0.0002442,
        "meta_inclination": 0.047,
        "meta_ra_of_asc_node": 350.7125,
        "meta_arg_of_pericenter": 289.2304,
        "meta_mean_anomaly": 275.7579,
        "meta_ephemeris_type": 0,
        "meta_classification_type": "U",
        "meta_norad_cat_id": 41382,
        "meta_element_set_no": 999,
        "meta_rev_at_epoch": 3581,
        "meta_bstar": 0,
        "meta_mean_motion_dot": -2.54e-06,
        "meta_mean_motion_ddot": 0,
        "tle_line1": "1 41382U 16014A   25361.45748770 -.00000254  00000+0  00000+0 0  9999",
        "tle_line2": "2 41382   0.0470 350.7125 0002442 289.2304 275.7579  1.00270645 35818"
      },
      "geometry": {
        "type": "Point",
        "coordinates": [
          -20.84248236263136,
          -0.016716393277162137
        ]
      }
    },
    {
      "type": "Feature",
      "properties": {
        "norad_id": 41589,
        "name": "EUTELSAT 117 WEST B",
        "group": "eutelsat",
        "lat": 0.012929233983271235,
        "lon": -72.68124300936068,
        "alt_km": 35785.40934545637,
        "timestamp": "2025-12-27T20:30:58.958768+00:00",
        "meta_object_name": "EUTELSAT 117 WEST B",
        "meta_object_id": "2016-038B",
        "meta_epoch": "2025-12-27T07:38:14.830080",
        "meta_mean_motion": 1.00273464,
        "meta_eccentricity": 1.53e-05,
        "meta_inclination": 0.0038,
        "meta_ra_of_asc_node": 165.68,
        "meta_arg_of_pericenter": 47.668,
        "meta_mean_anomaly": 240.2602,
        "meta_ephemeris_type": 0,
        "meta_classification_type": "U",
        "meta_norad_cat_id": 41589,
        "meta_element_set_no": 999,
        "meta_rev_at_epoch": 3494,
        "meta_bstar": 0,
        "meta_mean_motion_dot": 1.1e-07,
        "meta_mean_motion_ddot": 0,
        "tle_line1": "1 41589U 16038B   25361.31822720  .00000011  00000+0  00000+0 0  9997",
        "tle_line2": "2 41589   0.0038 165.6800 0000153  47.6680 240.2602  1.00273464 34949"
      },
      "geometry": {
        "type": "Point",
        "coordinates": [
          -72.68124300936068,
          0.012929233983271235
        ]
      }
    },
    {
      "type": "Feature",
      "properties": {
        "norad_id": 42741,
        "name": "EUTELSAT 172B",
        "group": "eutelsat",
        "lat": 0.017766312231200267,
        "lon": -143.68934375462072,
        "alt_km": 35786.19732409251,
        "timestamp": "2025-12-27T20:30:58.958780+00:00",
        "meta_object_name": "EUTELSAT 172B",
        "meta_object_id": "2017-029B",
        "meta_epoch": "2025-12-27T11:35:38.600160",
        "meta_mean_motion": 1.00270267,
        "meta_eccentricity": 7e-06,
        "meta_inclination": 0.0375,
        "meta_ra_of_asc_node": 156.3373,
        "meta_arg_of_pericenter": 64.6039,
        "meta_mean_anomaly": 221.1775,
        "meta_ephemeris_type": 0,
        "meta_classification_type": "U",
        "meta_norad_cat_id": 42741,
        "meta_element_set_no": 999,
        "meta_rev_at_epoch": 3200,
        "meta_bstar": 0,
        "meta_mean_motion_dot": 1.7e-07,
        "meta_mean_motion_ddot": 0,
        "tle_line1": "1 42741U 17029B   25361.48308565  .00000017  00000+0  00000+0 0  9999",
        "tle_line2": "2 42741   0.0375 156.3373 0000070  64.6039 221.1775  1.00270267 32003"
      },
      "geometry": {
        "type": "Point",
        "coordinates": [
          -143.68934375462072,
          0.017766312231200267
        ]
      }
    }
  ]
}